OBJECT_NAME,OBJECT_ID,EPOCH,MEAN_MOTION,ECCENTRICITY,INCLINATION,RA_OF_ASC_NODE,ARG_OF_PERICENTER,MEAN_ANOMALY,EPHEMERIS_TYPE,CLASSIFICATION_TYPE,NORAD_CAT_ID,ELEMENT_SET_NO,REV_AT_EPOCH,BSTAR,MEAN_MOTION_DOT,MEAN_MOTION_DDOT,SEMIMAJOR_AXIS,SATELLITE_TYPE
NEE-02 KRYSAOR,2013-066AB,2024-12-31T06:35:09.636576,14.82715386,0.007175,97.843,301.3308,15.2986,345.0374,0,U,39441,999,59711,0.0009873,8.286e-05,0.0,6998.903064154119,CubeSat
DUCHIFAT-3,2019-089C,2024-12-31T21:09:50.194944,15.30078326,0.0012599,36.9504,277.8154,303.1274,56.8268,0,U,44854,999,27841,0.0018527,0.00055699,0.0,6853.715390126114,CubeSat
PROMETHEUS 2-1,2016-067G,2025-01-01T00:24:11.695392,15.31633024,0.0009739,98.0906,197.7067,89.4729,270.7626,0,U,41854,999,44585,0.0020683,0.00063644,0.0,6849.076654471864,CubeSat
CUBEBUG-2 (LO-74),2013-066AA,2024-12-31T13:59:05.142624,14.8731204,0.0065123,97.8344,306.7065,348.9371,11.0409,0,U,39440,999,59763,0.0015499,0.00014506,0.0,6984.475188387251,CubeSat
AAUSAT-II,2008-021F,2024-12-30T16:59:13.873344,15.39440892,0.0004057,97.6043,349.3562,130.9842,229.1754,0,U,32788,999,90830,0.0025735,0.00101973,0.0,6825.898545447559,CubeSat
ISS (ZARYA),1998-067A,2024-12-31T19:30:49.950432,15.50544003,0.0006091,51.6382,56.2039,28.0496,332.082,0,U,25544,999,48920,0.00048311,0.00027763,0.0,6793.273673466333,Amateur Radio
UWE-3,2013-066AG,2024-12-31T19:43:44.558400,14.90232085,0.005433,97.8065,313.1254,289.3921,70.1429,0,U,39446,999,59809,0.0013607,0.00013531,0.0,6975.348355782979,CubeSat
UKUBE-1,2014-037F,2024-12-31T06:38:43.953504,15.00452365,0.0003271,98.3678,309.3963,94.0291,266.1305,0,U,40074,999,56826,0.0015977,0.00020086,0.0,6943.63738979986,CubeSat
IRIDIUM 156,2018-061H,2024-12-31T18:48:26.191008,14.34218975,0.0001797,86.3964,279.1926,90.4304,269.7097,0,U,43576,999,33706,0.0002207,6.38e-06,0.0,7155.800079726346,Iridium Next
OPTICUBE 04,2016-067D,2025-01-01T01:51:17.211456,15.05518209,0.0018513,98.0854,180.9074,110.6144,249.7068,0,U,41851,999,44498,0.00059335,8.506e-05,0.0,6928.052439355376,CubeSat
ROBUSTA-1E (ENSO),2023-185J,2025-01-01T02:57:21.565728,15.37587317,0.0008571,97.3998,73.245,299.1586,60.88,0,U,58470,999,6039,0.00161,0.0005976,0.0,6831.383230897343,CubeSat
IRIDIUM 125,2017-061K,2024-12-31T18:34:22.409472,14.34219859,0.0001491,86.3969,247.8036,69.2922,290.8433,0,U,42964,999,37854,0.00018774,5.46e-06,0.0,7155.7971393459575,Iridium Next
NANOZOND 1 (RS49S),2023-091AA,2025-01-01T03:44:27.521376,15.24455151,0.0009389,97.5829,61.6744,137.8654,222.3306,0,U,57190,999,8363,0.0019524,0.00048184,0.0,6870.558997755295,Amateur Radio
IRIDIUM 105,2017-003E,2024-12-31T11:38:27.769632,14.34231539,0.0002025,86.397,279.4421,85.0732,275.0695,0,U,41921,999,41878,0.00037948,1.083e-05,0.0,7155.758289354746,Iridium Next
PROMETHEUS 2-3,2016-067H,2024-12-31T19:48:39.202272,15.31528932,0.0008182,98.0849,196.7966,99.6205,260.5959,0,U,41855,999,44582,0.0020593,0.00063132,0.0,6849.386987497717,CubeSat
IRIDIUM 179,2023-068W,2024-12-31T09:40:04.075680,14.80253123,0.000235,86.6782,255.2378,82.1181,278.0308,0,U,56730,999,8755,0.00055463,4.243e-05,0.0,7006.662262314765,Iridium Next
AEROCUBE 8C,2016-067F,2024-12-31T23:39:16.751520,15.1360596,0.0007736,98.0924,186.0144,88.2242,271.9874,0,U,41853,999,44524,0.0011153,0.00020007,0.0,6903.350994090944,CubeSat
CUTE-1.7+APD II (CO-65),2008-021C,2024-12-31T19:48:51.446880,15.01274184,0.0011784,97.7702,331.3677,53.0196,307.2105,0,U,32785,999,90508,0.0010726,0.00013768,0.0,6941.103127481313,CubeSat
CUTE-1.7+APD II (CO-65),2008-021C,2024-12-31T19:48:51.446880,15.01274184,0.0011784,97.7702,331.3677,53.0196,307.2105,0,U,32785,999,90508,0.0010726,0.00013768,0.0,6941.103127481313,CubeSat
SITRO-AIS 9 (SHCHUKIN),2023-091AM,2024-12-31T22:56:04.344576,15.18193701,0.0011379,97.5856,59.7611,143.44,216.7613,0,U,57201,999,8348,0.0014107,0.00028911,0.0,6889.436757931628,CubeSat
CORVUS BC2,2017-042X,2024-12-31T10:07:35.731776,15.00873902,0.0013425,97.3662,180.9862,110.3745,249.8924,0,U,42846,999,40699,0.0007389,9.369e-05,0.0,6942.337197469258,CubeSat
BEESAT-1,2009-051C,2024-12-31T15:04:25.309344,14.60045994,0.0006696,98.4407,254.4097,80.7718,279.4238,0,U,35933,999,81142,0.0008501,4.037e-05,0.0,7071.162482078481,CubeSat
SWISSCUBE,2009-051B,2024-12-31T15:26:40.078752,14.60509912,0.0008256,98.4477,253.7997,69.3645,290.8439,0,U,35932,999,81136,0.0009843,4.731e-05,0.0,7069.665008161548,CubeSat
